     2.100          NAVIGATION                              RINEX VERSION / TYPE
fic2rin                                 08/30/2016 00:06:51 PGM / RUN BY / DATE
                                                            END OF HEADER
 1 16  8 29  2  0  0.0  .320132821798D-04  .136424205266D-11  .000000000000D+00
     .500000000000D+02 -.994375000000D+02  .422089010273D-08  .967411692237D-01
    -.509433448315D-05  .585743738338D-02  .107605010271D-04  .515364324951D+04
     .936000000000D+05  .689178705215D-07  .237148854531D+01  .912696123123D-07
     .965306180077D+00  .176593750000D+03  .532228290405D+00 -.796033157976D-08
     .560737642688D-10  .100000000000D+01  .191200000000D+04  .000000000000D+00
     .240000000000D+01  .000000000000D+00  .512227416039D-08  .500000000000D+02
     .864060000000D+05  .400000000000D+01
 2 16  8 29  2  0  0.0  .559668987989D-03 -.454747350886D-11  .000000000000D+00
     .250000000000D+02 -.968750000000D+02  .480377152494D-08  .526690030731D+00
    -.519305467606D-05  .158899306552D-01  .930018723011D-05  .515362780762D+04
     .936000000000D+05 -.268220901489D-06  .232395913567D+01  .100582838058D-06
     .944079436241D+00  .195750000000D+03 -.209033621375D+01 -.837392023596D-08
    -.106433004790D-09  .100000000000D+01  .191200000000D+04  .000000000000D+00
     .240000000000D+01  .000000000000D+00 -.204890966415D-07  .250000000000D+02
     .864060000000D+05  .400000000000D+01
 3 16  8 29  2  0  0.0 -.837263651192D-04 -.250111042988D-11  .000000000000D+00
     .810000000000D+02  .240000000000D+02  .479305679291D-08 -.310780834824D+00
     .131316483021D-05  .148212537169D-03  .894442200661D-05  .515362985229D+04
     .936000000000D+05  .298023223877D-07 -.287043377144D+01  .186264514923D-08
     .959761719094D+00  .207187500000D+03 -.204139447959D+00 -.804854954011D-08
     .629311927654D-09  .100000000000D+01  .191200000000D+04  .000000000000D+00
     .240000000000D+01  .000000000000D+00  .139698386192D-08  .810000000000D+02
     .864060000000D+05  .400000000000D+01
 4 16  8 29  2  0  0.0 -.260430853814D-03 -.341060513165D-12  .000000000000D+00
     .370000000000D+02  .104281250000D+03  .514057126828D-08 -.295362699970D+01
     .546686351299D-05  .842805218417D-02  .598281621933D-05  .515367298889D+04
     .936000000000D+05  .633299350739D-07  .294547182535D+00 -.745058059692D-08
     .983355400014D+00  .275531250000D+03  .900933387058D+00 -.776496629916D-08
     .246081678861D-09  .100000000000D+01  .191200000000D+04  .000000000000D+00
     .240000000000D+01  .630000000000D+02 -.195577740669D-07  .370000000000D+02
     .864060000000D+05  .400000000000D+01
 5 16  8 29  2  0  0.0 -.948519445956D-04  .261479726760D-11  .000000000000D+00
     .250000000000D+02  .237812500000D+02  .497949313016D-08  .301297954795D+01
     .130012631416D-05  .470804830547D-02  .950694084167D-05  .515358638954D+04
     .936000000000D+05 -.521540641785D-07 -.288359067733D+01 -.856816768646D-07
     .946807591205D+00  .191187500000D+03  .489134054854D+00 -.804640659370D-08
     .598596362513D-09  .100000000000D+01  .191200000000D+04  .000000000000D+00
     .240000000000D+01  .000000000000D+00 -.107102096081D-07  .250000000000D+02
     .864060000000D+05  .400000000000D+01
 6 16  8 29  2  0  0.0  .238948501647D-03  .511590769747D-11  .000000000000D+00
     .640000000000D+02 -.107687500000D+03  .412838624957D-08  .365495534848D+00
    -.567175447941D-05  .229705125093D-03  .100750476122D-04  .515376377296D+04
     .936000000000D+05 -.745058059692D-08  .236307788256D+01 -.149011611938D-07
     .965113942401D+00  .181968750000D+03 -.135795016828D+01 -.788354266691D-08
     .332156692802D-10  .100000000000D+01  .191200000000D+04  .000000000000D+00
     .240000000000D+01  .000000000000D+00  .419095158577D-08  .640000000000D+02
     .864060000000D+05  .400000000000D+01
 7 16  8 29  2  0  0.0  .431417953223D-03 -.284217094304D-11  .000000000000D+00
     .170000000000D+02  .288125000000D+02  .429339312277D-08 -.595473445688D+00
     .131502747536D-05  .997056846973D-02  .114981085062D-04  .515363447952D+04
     .936000000000D+05  .132247805595D-06 -.753071603244D+00  .111758708954D-06
     .965356074361D+00  .160093750000D+03 -.264128132091D+01 -.792747306822D-08
    -.564309220030D-09  .100000000000D+01  .191200000000D+04  .000000000000D+00
     .240000000000D+01  .000000000000D+00 -.111758708954D-07  .170000000000D+02
     .864060000000D+05  .400000000000D+01
 8 16  8 29  2  0  0.0 -.297073274851D-04 -.147792889038D-11  .000000000000D+00
     .860000000000D+02 -.524062500000D+02  .461269213714D-08  .302437735336D+01
    -.270083546638D-05  .170034810435D-02  .217370688915D-05  .515374071503D+04
     .936000000000D+05 -.558793544769D-08  .130989133590D+01  .931322574615D-08
     .963883455672D+00  .338750000000D+03 -.102036752439D+01 -.841892211047D-08
    -.122862260563D-09  .100000000000D+01  .191200000000D+04  .000000000000D+00
     .240000000000D+01  .000000000000D+00  .512227416039D-08  .860000000000D+02
     .864060000000D+05  .400000000000D+01
 9 16  8 29  2  0  0.0  .195764005184D-03  .727595761418D-11  .000000000000D+00
     .900000000000D+01 -.868750000000D+01  .521450291926D-08  .209616531032D+01
    -.437721610069D-06  .509335077368D-03  .540353357792D-05  .515378761482D+04
     .936000000000D+05  .298023223877D-07 -.183177342638D+01 -.800937414169D-07
     .954224932579D+00  .269000000000D+03  .212092099877D+01 -.837142013182D-08
    -.259296515026D-09  .100000000000D+01  .191200000000D+04  .000000000000D+00
     .240000000000D+01  .000000000000D+00  .139698386192D-08  .900000000000D+01
     .864060000000D+05  .400000000000D+01
10 16  8 29  2  0  0.0 -.902293249965D-04 -.545696821064D-11  .000000000000D+00
     .103000000000D+03  .324687500000D+02  .470662462124D-08 -.211417628665D+01
     .154413282871D-05  .168313342147D-02  .896304845810D-05  .515367826080D+04
     .936000000000D+05  .149011611938D-07 -.287435986028D+01 -.130385160446D-07
     .959984894561D+00  .208062500000D+03 -.280902596666D+01 -.803604901941D-08
     .589667419158D-09  .100000000000D+01  .191200000000D+04  .000000000000D+00
     .240000000000D+01  .000000000000D+00  .232830643654D-08  .103000000000D+03
     .864060000000D+05  .400000000000D+01
11 16  8 29  2  0  0.0 -.661411322653D-03 -.250111042988D-11  .000000000000D+00
     .160000000000D+02 -.112687500000D+03  .593881880421D-08 -.487052992444D+00
    -.593625009060D-05  .167844539974D-01  .744871795177D-05  .515367969894D+04
     .936000000000D+05 -.193715095520D-06  .198788797581D+01  .149011611938D-06
     .897608484402D+00  .205875000000D+03  .156301484902D+01 -.914680957276D-08
    -.525021869268D-10  .100000000000D+01  .191200000000D+04  .000000000000D+00
     .240000000000D+01  .000000000000D+00 -.121071934700D-07  .160000000000D+02
     .864060000000D+05  .400000000000D+01
12 16  8 29  2  0  0.0  .388136133552D-03  .341060513165D-12  .000000000000D+00
     .710000000000D+02  .992500000000D+02  .377944314326D-08 -.119743684802D+01
     .514276325703D-05  .603916356340D-02  .641867518425D-05  .515367412567D+04
     .936000000000D+05  .145286321640D-06  .324508397260D+00  .465661287308D-07
     .990413603776D+00  .272968750000D+03  .787703341932D+00 -.783889795014D-08
     .174650132022D-09  .100000000000D+01  .191200000000D+04  .000000000000D+00
     .240000000000D+01  .000000000000D+00 -.125728547573D-07  .710000000000D+02
     .864060000000D+05  .400000000000D+01
13 16  8 29  2  0  0.0 -.404478050768D-04 -.227373675443D-11  .000000000000D+00
     .990000000000D+02 -.170937500000D+02  .488413201513D-08  .365008052508D+00
    -.854954123497D-06  .404171203263D-02  .571273267269D-05  .515367702293D+04
     .936000000000D+05 -.540167093277D-07 -.170956967352D+01  .931322574615D-08
     .970499264230D+00  .275000000000D+03  .197553739672D+01 -.825712965688D-08
    -.280368821344D-09  .100000000000D+01  .191200000000D+04  .000000000000D+00
     .240000000000D+01  .000000000000D+00 -.111758708954D-07  .990000000000D+02
     .864060000000D+05  .400000000000D+01
14 16  8 29  2  0  0.0 -.322610139847D-04 -.193267624127D-11  .000000000000D+00
     .210000000000D+02 -.181250000000D+02  .489341811622D-08  .179200512338D+01
    -.111199915409D-05  .895024021156D-02  .599958002567D-05  .515404574013D+04
     .936000000000D+05 -.128522515297D-06 -.174723259164D+01 -.180676579475D-06
     .963003520688D+00  .267031250000D+03 -.195507885165D+01 -.815141096756D-08
    -.309655755548D-09  .100000000000D+01  .191200000000D+04  .000000000000D+00
     .240000000000D+01  .000000000000D+00 -.931322574615D-08  .210000000000D+02
     .864060000000D+05  .400000000000D+01
15 16  8 29  2  0  0.0 -.325223896652D-03 -.147792889038D-11  .000000000000D+00
     .100000000000D+03 -.759375000000D+01  .592024660203D-08  .145975509531D+01
    -.171363353729D-06  .835927901790D-02  .492110848427D-05  .515364760590D+04
     .936000000000D+05 -.167638063431D-07 -.188668045186D+01  .191852450371D-06
     .929948071841D+00  .270062500000D+03  .494606345700D+00 -.883715381721D-08
    -.213223167315D-09  .100000000000D+01  .191200000000D+04  .000000000000D+00
     .240000000000D+01  .000000000000D+00 -.107102096081D-07  .100000000000D+03
     .864060000000D+05  .400000000000D+01
16 16  8 29  2  0  0.0  .355765223503D-05  .204636307899D-11  .000000000000D+00
     .640000000000D+02  .106843750000D+03  .376908556897D-08  .310028124266D+01
     .540912151337D-05  .865798606537D-02  .572204589844D-05  .515355650520D+04
     .936000000000D+05  .130385160446D-07  .343300510404D+00 -.819563865662D-07
     .990904660025D+00  .286406250000D+03  .387370509388D+00 -.779746765297D-08
     .259296515026D-09  .100000000000D+01  .191200000000D+04  .000000000000D+00
     .240000000000D+01  .000000000000D+00 -.107102096081D-07  .640000000000D+02
     .864060000000D+05  .400000000000D+01
